ONEWEB-0346             
1 49212U 21083AC  24113.59744505  .00000023  00000+0  26741-4 0  9990
2 49212  87.9127 131.8558 0002270  80.1359 280.0029 13.18687903126446
ONEWEB-0348             
1 49213U 21083AD  24113.81925219  .00000011  00000+0 -50307-5 0  9993
2 49213  87.9185  70.7131 0002656  77.0120 283.1310 13.20770637133140
ONEWEB-0350             
1 49214U 21083AE  24113.95739775 -.00000239  00000+0 -68832-3 0  9992
2 49214  87.8890 116.5289 0002428  89.8536 270.2871 13.13470458127855
ONEWEB-0351             
1 49215U 21083AF  24113.81279082  .00000075  00000+0  15309-3 0  9995
2 49215  87.9182  70.7154 0001410 111.6224 248.5059 13.20773654133104
ONEWEB-0352             
1 49216U 21083AG  24113.93835347  .00000073  00000+0  16385-3 0  9994
2 49216  87.8895 116.5620 0001903  97.3323 262.8023 13.13469656127940
ONEWEB-0354             
1 49217U 21083AH  24113.91394946  .00000041  00000+0  68747-4 0  9993
2 49217  87.9186  70.6786 0002346  87.5544 272.5858 13.20771293133151
ONEWEB-0355             
1 49218U 21083AJ  24113.51143930 -.00000040  00000+0 -14540-3 0  9997
2 49218  87.8893 116.6468 0002104  94.0191 266.1179 13.13469793127763
ONEWEB-0357             
1 49219U 21083AK  24113.91076272 -.00000068  00000+0 -19883-3 0  9991
2 49219  87.9179  70.6989 0002108  88.4911 271.6463 13.20772853133159
